start=new Date('2023-02-20T00:00:00.000Z').valueOf();
sats=[{"MEAN_MOTION_DDOT":"0.0000000000000","COUNTRY_CODE":"US","REF_FRAME":"TEME","NORAD_CAT_ID":"53554","FILE":"3812055","RCS_SIZE":"LARGE","EPHEMERIS_TYPE":"0","ECCENTRICITY":"0.00005300","APOAPSIS":"540.085","OBJECT_NAME":"STARLINK-4506","MEAN_ELEMENT_THEORY":"SGP4","INCLINATION":"53.2177","DECAY_DATE":null,"TLE_LINE2":"2 53554  53.2177  25.3182 0000530  99.4604 260.6448 15.08848785 28127","OBJECT_TYPE":"PAYLOAD","TLE_LINE1":"1 53554U 22101AD  23050.63350665 -.00000054  00000-0  14690-4 0  9996","CLASSIFICATION_TYPE":"U","SEMIMAJOR_AXIS":"6917.854","SITE":"AFETR","CENTER_NAME":"EARTH","OBJECT_ID":"2022-101AD","PERIOD":"95.437","RA_OF_ASC_NODE":"25.3182","ELEMENT_SET_NO":"999","PERIAPSIS":"539.352","REV_AT_EPOCH":"2812","MEAN_MOTION_DOT":"-0.00000054","GP_ID":"226060353","TIME_SYSTEM":"UTC","MEAN_ANOMALY":"260.6448","BSTAR":"0.00001469000000","LAUNCH_DATE":"2022-08-19","EPOCH":"2023-02-19T15:12:14.974560","MEAN_MOTION":"15.08848785","ARG_OF_PERICENTER":"99.4604"},{"EPHEMERIS_TYPE":"0","FILE":"3812064","RCS_SIZE":"LARGE","REF_FRAME":"TEME","NORAD_CAT_ID":"53555","APOAPSIS":"540.357","ECCENTRICITY":"0.00008840","COUNTRY_CODE":"US","MEAN_MOTION_DDOT":"0.0000000000000","SEMIMAJOR_AXIS":"6917.880","CLASSIFICATION_TYPE":"U","CENTER_NAME":"EARTH","SITE":"AFETR","INCLINATION":"53.2178","MEAN_ELEMENT_THEORY":"SGP4","OBJECT_NAME":"STARLINK-4504","OBJECT_TYPE":"PAYLOAD","TLE_LINE1":"1 53555U 22101AE  23050.64454876  .00000584  00000-0  54741-4 0  9995","TLE_LINE2":"2 53555  53.2178  25.2628 0000884  88.3969 271.7125 15.08840119 28124","DECAY_DATE":null,"GP_ID":"226060660","RA_OF_ASC_NODE":"25.2628","PERIOD":"95.438","OBJECT_ID":"2022-101AE","MEAN_MOTION_DOT":"0.00000584","REV_AT_EPOCH":"2812","PERIAPSIS":"539.133","ELEMENT_SET_NO":"999","MEAN_MOTION":"15.08840119","EPOCH":"2023-02-19T15:28:09.012864","LAUNCH_DATE":"2022-08-19","ARG_OF_PERICENTER":"88.3969","TIME_SYSTEM":"UTC","BSTAR":"0.00005474100000","MEAN_ANOMALY":"271.7125"},{"APOAPSIS":"540.352","ECCENTRICITY":"0.00009060","EPHEMERIS_TYPE":"0","RCS_SIZE":"LARGE","FILE":"3812164","NORAD_CAT_ID":"53556","REF_FRAME":"TEME","COUNTRY_CODE":"US","MEAN_MOTION_DDOT":"0.0000000000000","SITE":"AFETR","CENTER_NAME":"EARTH","SEMIMAJOR_AXIS":"6917.860","CLASSIFICATION_TYPE":"U","TLE_LINE1":"1 53556U 22101AF  23050.62613666  .00002387  00000-0  16796-3 0  9998","OBJECT_TYPE":"PAYLOAD","TLE_LINE2":"2 53556  53.2172  25.3528 0000906  76.6717 283.4376 15.08846732 28120","DECAY_DATE":null,"MEAN_ELEMENT_THEORY":"SGP4","INCLINATION":"53.2172","OBJECT_NAME":"STARLINK-4505","GP_ID":"226062815","MEAN_MOTION_DOT":"0.00002387","PERIAPSIS":"539.098","REV_AT_EPOCH":"2812","ELEMENT_SET_NO":"999","RA_OF_ASC_NODE":"25.3528","PERIOD":"95.437","OBJECT_ID":"2022-101AF","ARG_OF_PERICENTER":"76.6717","MEAN_MOTION":"15.08846732","EPOCH":"2023-02-19T15:01:38.207424","LAUNCH_DATE":"2022-08-19","BSTAR":"0.00016796000000","MEAN_ANOMALY":"283.4376","TIME_SYSTEM":"UTC"},{"BSTAR":"-0.00024793000000","MEAN_ANOMALY":"277.4477","TIME_SYSTEM":"UTC","ARG_OF_PERICENTER":"82.6671","EPOCH":"2023-02-19T15:17:33.247104","LAUNCH_DATE":"2022-08-19","MEAN_MOTION":"15.08836695","MEAN_MOTION_DOT":"-0.00004231","REV_AT_EPOCH":"2812","PERIAPSIS":"538.806","ELEMENT_SET_NO":"999","OBJECT_ID":"2022-101AG","PERIOD":"95.438","RA_OF_ASC_NODE":"25.2997","GP_ID":"226063047","TLE_LINE2":"2 53557  53.2170  25.2997 0001372  82.6671 277.4477 15.08836695 28124","DECAY_DATE":null,"OBJECT_TYPE":"PAYLOAD","TLE_LINE1":"1 53557U 22101AG  23050.63719036 -.00004231  00000-0 -24793-3 0  9996","INCLINATION":"53.2170","MEAN_ELEMENT_THEORY":"SGP4","OBJECT_NAME":"STARLINK-4502","CENTER_NAME":"EARTH","SITE":"AFETR","CLASSIFICATION_TYPE":"U","SEMIMAJOR_AXIS":"6917.890","MEAN_MOTION_DDOT":"0.0000000000000","COUNTRY_CODE":"US","ECCENTRICITY":"0.00013720","APOAPSIS":"540.705","RCS_SIZE":"LARGE","FILE":"3812181","NORAD_CAT_ID":"53557","REF_FRAME":"TEME","EPHEMERIS_TYPE":"0"},{"GP_ID":"226062850","ELEMENT_SET_NO":"999","PERIAPSIS":"538.665","REV_AT_EPOCH":"2819","MEAN_MOTION_DOT":"0.00001243","OBJECT_ID":"2022-101AH","RA_OF_ASC_NODE":"20.0797","PERIOD":"95.438","ARG_OF_PERICENTER":"74.8296","LAUNCH_DATE":"2022-08-19","EPOCH":"2023-02-19T15:11:35.869056","MEAN_MOTION":"15.08837039","MEAN_ANOMALY":"285.2870","BSTAR":"0.00009619700000","TIME_SYSTEM":"UTC","ECCENTRICITY":"0.00015750","APOAPSIS":"540.844","NORAD_CAT_ID":"53558","REF_FRAME":"TEME","FILE":"3812165","RCS_SIZE":"LARGE","EPHEMERIS_TYPE":"0","MEAN_MOTION_DDOT":"0.0000000000000","COUNTRY_CODE":"US","CENTER_NAME":"EARTH","SITE":"AFETR","CLASSIFICATION_TYPE":"U","SEMIMAJOR_AXIS":"6917.889","DECAY_DATE":null,"TLE_LINE2":"2 53558  53.2216  20.0797 0001575  74.8296 285.2870 15.08837039 28192","OBJECT_TYPE":"PAYLOAD","TLE_LINE1":"1 53558U 22101AH  23050.63305404  .00001243  00000-0  96197-4 0  9993","OBJECT_NAME":"STARLINK-4494","INCLINATION":"53.2216","MEAN_ELEMENT_THEORY":"SGP4"},{"MEAN_MOTION_DOT":"0.00000689","REV_AT_EPOCH":"2812","PERIAPSIS":"539.341","ELEMENT_SET_NO":"999","RA_OF_ASC_NODE":"25.3349","PERIOD":"95.437","OBJECT_ID":"2022-101AJ","GP_ID":"226062826","BSTAR":"0.00006130700000","MEAN_ANOMALY":"236.7770","TIME_SYSTEM":"UTC","ARG_OF_PERICENTER":"123.3273","MEAN_MOTION":"15.08850948","EPOCH":"2023-02-19T15:06:56.907648","LAUNCH_DATE":"2022-08-19","COUNTRY_CODE":"US","MEAN_MOTION_DDOT":"0.0000000000000","APOAPSIS":"540.083","ECCENTRICITY":"0.00005360","EPHEMERIS_TYPE":"0","FILE":"3812164","RCS_SIZE":"LARGE","REF_FRAME":"TEME","NORAD_CAT_ID":"53559","OBJECT_TYPE":"PAYLOAD","TLE_LINE1":"1 53559U 22101AJ  23050.62982532  .00000689  00000-0  61307-4 0  9994","TLE_LINE2":"2 53559  53.2166  25.3349 0000536 123.3273 236.7770 15.08850948 28126","DECAY_DATE":null,"MEAN_ELEMENT_THEORY":"SGP4","INCLINATION":"53.2166","OBJECT_NAME":"STARLINK-4508","SITE":"AFETR","CENTER_NAME":"EARTH","SEMIMAJOR_AXIS":"6917.847","CLASSIFICATION_TYPE":"U"},{"MEAN_MOTION":"15.08834347","LAUNCH_DATE":"2022-08-19","EPOCH":"2023-02-19T14:31:12.773280","ARG_OF_PERICENTER":"79.3998","TIME_SYSTEM":"UTC","MEAN_ANOMALY":"280.7078","BSTAR":"0.00005132100000","GP_ID":"226049733","RA_OF_ASC_NODE":"15.6205","PERIOD":"95.438","OBJECT_ID":"2022-101AK","ELEMENT_SET_NO":"999","PERIAPSIS":"539.246","REV_AT_EPOCH":"2825","MEAN_MOTION_DOT":"0.00000529","SEMIMAJOR_AXIS":"6917.898","CLASSIFICATION_TYPE":"U","SITE":"AFETR","CENTER_NAME":"EARTH","OBJECT_NAME":"STARLINK-4564","INCLINATION":"53.2221","MEAN_ELEMENT_THEORY":"SGP4","OBJECT_TYPE":"PAYLOAD","TLE_LINE1":"1 53560U 22101AK  23050.60500895  .00000529  00000-0  51321-4 0  9990","DECAY_DATE":null,"TLE_LINE2":"2 53560  53.2221  15.6205 0000747  79.3998 280.7078 15.08834347 28250","EPHEMERIS_TYPE":"0","NORAD_CAT_ID":"53560","REF_FRAME":"TEME","RCS_SIZE":"LARGE","FILE":"3811610","APOAPSIS":"540.279","ECCENTRICITY":"0.00007470","COUNTRY_CODE":"US","MEAN_MOTION_DDOT":"0.0000000000000"},{"MEAN_MOTION_DOT":"0.00005957","PERIAPSIS":"538.814","ELEMENT_SET_NO":"999","REV_AT_EPOCH":"2812","PERIOD":"95.438","RA_OF_ASC_NODE":"25.3708","OBJECT_ID":"2022-101AL","GP_ID":"226062858","BSTAR":"0.00039210000000","MEAN_ANOMALY":"244.4117","TIME_SYSTEM":"UTC","ARG_OF_PERICENTER":"115.7017","MEAN_MOTION":"15.08833498","EPOCH":"2023-02-19T14:57:43.419744","LAUNCH_DATE":"2022-08-19","COUNTRY_CODE":"US","MEAN_MOTION_DDOT":"0.0000000000000","APOAPSIS":"540.716","ECCENTRICITY":"0.00013750","EPHEMERIS_TYPE":"0","FILE":"3812166","RCS_SIZE":"LARGE","NORAD_CAT_ID":"53561","REF_FRAME":"TEME","TLE_LINE1":"1 53561U 22101AL  23050.62341921  .00005957  00000-0  39210-3 0  9998","OBJECT_TYPE":"PAYLOAD","TLE_LINE2":"2 53561  53.2174  25.3708 0001375 115.7017 244.4117 15.08833498 28122","DECAY_DATE":null,"MEAN_ELEMENT_THEORY":"SGP4","INCLINATION":"53.2174","OBJECT_NAME":"STARLINK-4563","SITE":"AFETR","CENTER_NAME":"EARTH","SEMIMAJOR_AXIS":"6917.900","CLASSIFICATION_TYPE":"U"},{"TLE_LINE1":"1 53562U 22101AM  23050.79731563 -.00007290  00000-0 -44042-3 0  9995","OBJECT_TYPE":"PAYLOAD","TLE_LINE2":"2 53562  53.2192  14.6895 0001047  73.6870 286.4237 15.08841609 28285","DECAY_DATE":null,"INCLINATION":"53.2192","MEAN_ELEMENT_THEORY":"SGP4","OBJECT_NAME":"STARLINK-4565","CENTER_NAME":"EARTH","SITE":"AFETR","SEMIMAJOR_AXIS":"6917.875","CLASSIFICATION_TYPE":"U","COUNTRY_CODE":"US","MEAN_MOTION_DDOT":"0.0000000000000","APOAPSIS":"540.465","ECCENTRICITY":"0.00010470","EPHEMERIS_TYPE":"0","FILE":"3812166","RCS_SIZE":"LARGE","REF_FRAME":"TEME","NORAD_CAT_ID":"53562","BSTAR":"-0.00044042000000","MEAN_ANOMALY":"286.4237","TIME_SYSTEM":"UTC","ARG_OF_PERICENTER":"73.6870","MEAN_MOTION":"15.08841609","EPOCH":"2023-02-19T19:08:08.070432","LAUNCH_DATE":"2022-08-19","MEAN_MOTION_DOT":"-0.00007290","PERIAPSIS":"539.016","ELEMENT_SET_NO":"999","REV_AT_EPOCH":"2828","PERIOD":"95.437","RA_OF_ASC_NODE":"14.6895","OBJECT_ID":"2022-101AM","GP_ID":"226062864"},{"MEAN_MOTION_DDOT":"0.0000000000000","COUNTRY_CODE":"US","ECCENTRICITY":"0.00001260","APOAPSIS":"539.772","FILE":"3812167","RCS_SIZE":"LARGE","NORAD_CAT_ID":"53563","REF_FRAME":"TEME","EPHEMERIS_TYPE":"0","TLE_LINE2":"2 53563  53.2188  15.6468 0000126 101.5800 258.5206 15.08859738 28254","DECAY_DATE":null,"OBJECT_TYPE":"PAYLOAD","TLE_LINE1":"1 53563U 22101AN  23050.60869149  .00001870  00000-0  13542-3 0  9995","INCLINATION":"53.2188","MEAN_ELEMENT_THEORY":"SGP4","OBJECT_NAME":"STARLINK-4561","CENTER_NAME":"EARTH","SITE":"AFETR","CLASSIFICATION_TYPE":"U","SEMIMAJOR_AXIS":"6917.820","MEAN_MOTION_DOT":"0.00001870","PERIAPSIS":"539.598","ELEMENT_SET_NO":"999","REV_AT_EPOCH":"2825","OBJECT_ID":"2022-101AN","PERIOD":"95.436","RA_OF_ASC_NODE":"15.6468","GP_ID":"226062874","BSTAR":"0.00013542000000","MEAN_ANOMALY":"258.5206","TIME_SYSTEM":"UTC","ARG_OF_PERICENTER":"101.5800","EPOCH":"2023-02-19T14:36:30.944736","LAUNCH_DATE":"2022-08-19","MEAN_MOTION":"15.08859738"}];
